{
    "links": {
        "self": "http://www.neowsapp.com/rest/v1/neo/54054415?api_key=iIulBulltgU6a56xZRHN4H3l9WmuAYTsLGpBGhQ2"
    },
    "id": "54054415",
    "neo_reference_id": "54054415",
    "name": "(2020 RG9)",
    "designation": "2020 RG9",
    "nasa_jpl_url": "http://ssd.jpl.nasa.gov/sbdb.cgi?sstr=54054415",
    "absolute_magnitude_h": 21.833,
    "estimated_diameter": {
        "kilometers": {
            "estimated_diameter_min": 0.1142759859,
            "estimated_diameter_max": 0.2555288726
        },
        "meters": {
            "estimated_diameter_min": 114.2759858512,
            "estimated_diameter_max": 255.5288725591
        },
        "miles": {
            "estimated_diameter_min": 0.0710077836,
            "estimated_diameter_max": 0.1587782311
        },
        "feet": {
            "estimated_diameter_min": 374.9212254201,
            "estimated_diameter_max": 838.3493462469
        }
    },
    "is_potentially_hazardous_asteroid": false,
    "close_approach_data": [
        {
            "close_approach_date": "2020-05-17",
            "close_approach_date_full": "2020-May-17 04:51",
            "epoch_date_close_approach": 1589691060000,
            "relative_velocity": {
                "kilometers_per_second": "15.0138743504",
                "kilometers_per_hour": "54049.9476613201",
                "miles_per_hour": "33584.5355343353"
            },
            "miss_distance": {
                "astronomical": "0.2830919001",
                "lunar": "110.1227491389",
                "kilometers": "42349945.269212787",
                "miles": "26315035.7458669806"
            },
            "orbiting_body": "Earth"
        }
    ],
    "orbital_data": {
        "orbit_id": "1",
        "orbit_determination_date": "2020-09-18 04:42:14",
        "first_observation_date": "2020-09-14",
        "last_observation_date": "2020-09-17",
        "data_arc_in_days": 3,
        "observations_used": 17,
        "orbit_uncertainty": "8",
        "minimum_orbit_intersection": ".089968",
        "jupiter_tisserand_invariant": "3.704",
        "epoch_osculation": "2459108.5",
        "eccentricity": ".46517976339588",
        "semi_major_axis": "1.97914686123224",
        "inclination": "10.22069759986792",
        "ascending_node_longitude": "57.53722008059585",
        "orbital_period": "1016.98713657864",
        "perihelion_distance": "1.058487792598528",
        "perihelion_argument": "220.5173569172977",
        "aphelion_distance": "2.899805929865952",
        "perihelion_time": "2459011.760501302552",
        "mean_anomaly": "34.24450347350908",
        "mean_motion": ".3539867782508206",
        "equinox": "J2000",
        "orbit_class": {
            "orbit_class_type": "AMO",
            "orbit_class_description": "Near-Earth asteroid orbits similar to that of 1221 Amor",
            "orbit_class_range": "1.017 AU < q (perihelion) < 1.3 AU"
        }
    },
    "is_sentry_object": false
}